{
  "norad_id": 60922,
  "name": "STARLINK-32274",
  "history": [
    {
      "epoch": "2026-03-28T18:15:21.729888",
      "apogee_km": 476.15060844119853,
      "perigee_km": 474.33131072804736,
      "latitude_deg": -51.905730921598774,
      "longitude_deg": -14.775855679996312,
      "semi_major_axis_km": 6853.377959584623,
      "eccentricity": 0.00013273,
      "inclination_deg": 53.1596,
      "raan_deg": 195.3378,
      "arg_perigee_deg": 94.7238,
      "mean_anomaly_deg": 265.3914,
      "mean_motion_rev_day": 15.30191329
    },
    {
      "epoch": "2026-03-29T00:31:34.783104",
      "apogee_km": 475.9139372288,
      "perigee_km": 474.5816392259694,
      "latitude_deg": 16.44833210675386,
      "longitude_deg": 10.30531455995515,
      "semi_major_axis_km": 6853.384788227385,
      "eccentricity": 9.72e-05,
      "inclination_deg": 53.1608,
      "raan_deg": 194.1293,
      "arg_perigee_deg": 68.5406,
      "mean_anomaly_deg": 291.5699,
      "mean_motion_rev_day": 15.30189042
    }
  ]
}